{
  "type": "FeatureCollection",
  "features": [
    {
      "type": "Feature",
      "properties": {
        "norad_id": 66849,
        "name": "STARLINK-36102",
        "group": "last-30-days",
        "lat": -28.569601909189853,
        "lon": -54.106565170234205,
        "alt_km": 339.8211430197862,
        "timestamp": "2025-12-17T23:38:05.625854+00:00",
        "meta_object_name": "STARLINK-36102",
        "meta_object_id": "2025-281B",
        "meta_epoch": "2025-12-17T14:00:03.000384",
        "meta_mean_motion": 15.78564397,
        "meta_eccentricity": 0.00014077,
        "meta_inclination": 43.0004,
        "meta_ra_of_asc_node": 92.5825,
        "meta_arg_of_pericenter": 284.9632,
        "meta_mean_anomaly": 176.3715,
        "meta_ephemeris_type": 0,
        "meta_classification_type": "U",
        "meta_norad_cat_id": 66849,
        "meta_element_set_no": 999,
        "meta_rev_at_epoch": 217,
        "meta_bstar": -0.0081512558,
        "meta_mean_motion_dot": -0.01311849,
        "meta_mean_motion_ddot": 0,
        "tle_line1": "1 66849U 25281B   25351.58336806 -.01311849  00000+0 -81513-2 0  9994",
        "tle_line2": "2 66849  43.0004  92.5825 0001407 284.9632 176.3715 15.78564397  2178"
      },
      "geometry": {
        "type": "Point",
        "coordinates": [
          -54.106565170234205,
          -28.569601909189853
        ]
      }
    },
    {
      "type": "Feature",
      "properties": {
        "norad_id": 66850,
        "name": "STARLINK-36105",
        "group": "last-30-days",
        "lat": -29.8302783250315,
        "lon": -51.89254670082725,
        "alt_km": 340.0391041326475,
        "timestamp": "2025-12-17T23:38:05.625864+00:00",
        "meta_object_name": "STARLINK-36105",
        "meta_object_id": "2025-281C",
        "meta_epoch": "2025-12-17T14:00:03.000384",
        "meta_mean_motion": 15.78451784,
        "meta_eccentricity": 0.00015745,
        "meta_inclination": 43.0003,
        "meta_ra_of_asc_node": 92.5764,
        "meta_arg_of_pericenter": 279.6207,
        "meta_mean_anomaly": 184.1975,
        "meta_ephemeris_type": 0,
        "meta_classification_type": "U",
        "meta_norad_cat_id": 66850,
        "meta_element_set_no": 999,
        "meta_rev_at_epoch": 217,
        "meta_bstar": -0.0082521091,
        "meta_mean_motion_dot": -0.01320384,
        "meta_mean_motion_ddot": 0,
        "tle_line1": "1 66850U 25281C   25351.58336806 -.01320384  00000+0 -82521-2 0  9990",
        "tle_line2": "2 66850  43.0003  92.5764 0001574 279.6207 184.1975 15.78451784  2175"
      },
      "geometry": {
        "type": "Point",
        "coordinates": [
          -51.89254670082725,
          -29.8302783250315
        ]
      }
    },
    {
      "type": "Feature",
      "properties": {
        "norad_id": 66851,
        "name": "STARLINK-36094",
        "group": "last-30-days",
        "lat": -30.950355238493334,
        "lon": -49.81868506684736,
        "alt_km": 340.52821083104027,
        "timestamp": "2025-12-17T23:38:05.625874+00:00",
        "meta_object_name": "STARLINK-36094",
        "meta_object_id": "2025-281D",
        "meta_epoch": "2025-12-17T14:00:03.000384",
        "meta_mean_motion": 15.78395097,
        "meta_eccentricity": 0.00013391,
        "meta_inclination": 43.0004,
        "meta_ra_of_asc_node": 92.5708,
        "meta_arg_of_pericenter": 289.6348,
        "meta_mean_anomaly": 176.3864,
        "meta_ephemeris_type": 0,
        "meta_classification_type": "U",
        "meta_norad_cat_id": 66851,
        "meta_element_set_no": 999,
        "meta_rev_at_epoch": 217,
        "meta_bstar": -0.0083209924,
        "meta_mean_motion_dot": -0.01327043,
        "meta_mean_motion_ddot": 0,
        "tle_line1": "1 66851U 25281D   25351.58336806 -.01327043  00000+0 -83210-2 0  9996",
        "tle_line2": "2 66851  43.0004  92.5708 0001339 289.6348 176.3864 15.78395097  2175"
      },
      "geometry": {
        "type": "Point",
        "coordinates": [
          -49.81868506684736,
          -30.950355238493334
        ]
      }
    },
    {
      "type": "Feature",
      "properties": {
        "norad_id": 66852,
        "name": "STARLINK-35992",
        "group": "last-30-days",
        "lat": -32.02491790872798,
        "lon": -47.71925151513947,
        "alt_km": 340.5720742280855,
        "timestamp": "2025-12-17T23:38:05.625884+00:00",
        "meta_object_name": "STARLINK-35992",
        "meta_object_id": "2025-281E",
        "meta_epoch": "2025-12-17T14:00:03.000384",
        "meta_mean_motion": 15.78343953,
        "meta_eccentricity": 0.00013583,
        "meta_inclination": 43.0006,
        "meta_ra_of_asc_node": 92.5655,
        "meta_arg_of_pericenter": 282.55,
        "meta_mean_anomaly": 185.6398,
        "meta_ephemeris_type": 0,
        "meta_classification_type": "U",
        "meta_norad_cat_id": 66852,
        "meta_element_set_no": 999,
        "meta_rev_at_epoch": 217,
        "meta_bstar": -0.0083572854,
        "meta_mean_motion_dot": -0.01329457,
        "meta_mean_motion_ddot": 0,
        "tle_line1": "1 66852U 25281E   25351.58336806 -.01329457  00000+0 -83573-2 0  9990",
        "tle_line2": "2 66852  43.0006  92.5655 0001358 282.5500 185.6398 15.78343953  2171"
      },
      "geometry": {
        "type": "Point",
        "coordinates": [
          -47.71925151513947,
          -32.02491790872798
        ]
      }
    },
    {
      "type": "Feature",
      "properties": {
        "norad_id": 66853,
        "name": "STARLINK-35986",
        "group": "last-30-days",
        "lat": -33.1717096030729,
        "lon": -45.34031045769793,
        "alt_km": 340.93500166251033,
        "timestamp": "2025-12-17T23:38:05.625897+00:00",
        "meta_object_name": "STARLINK-35986",
        "meta_object_id": "2025-281F",
        "meta_epoch": "2025-12-17T14:00:03.000384",
        "meta_mean_motion": 15.7821391,
        "meta_eccentricity": 0.00015142,
        "meta_inclination": 43.0006,
        "meta_ra_of_asc_node": 92.559,
        "meta_arg_of_pericenter": 282.5478,
        "meta_mean_anomaly": 188.1555,
        "meta_ephemeris_type": 0,
        "meta_classification_type": "U",
        "meta_norad_cat_id": 66853,
        "meta_element_set_no": 999,
        "meta_rev_at_epoch": 217,
        "meta_bstar": -0.0084845534,
        "meta_mean_motion_dot": -0.01340519,
        "meta_mean_motion_ddot": 0,
        "tle_line1": "1 66853U 25281F   25351.58336806 -.01340519  00000+0 -84846-2 0  9997",
        "tle_line2": "2 66853  43.0006  92.5590 0001514 282.5478 188.1555 15.78213910  2170"
      },
      "geometry": {
        "type": "Point",
        "coordinates": [
          -45.34031045769793,
          -33.1717096030729
        ]
      }
    },
    {
      "type": "Feature",
      "properties": {
        "norad_id": 66854,
        "name": "STARLINK-36087",
        "group": "last-30-days",
        "lat": -34.24470539491767,
        "lon": -42.96186922546581,
        "alt_km": 341.3024166270425,
        "timestamp": "2025-12-17T23:38:05.625909+00:00",
        "meta_object_name": "STARLINK-36087",
        "meta_object_id": "2025-281G",
        "meta_epoch": "2025-12-17T14:00:03.000384",
        "meta_mean_motion": 15.78095595,
        "meta_eccentricity": 0.00015008,
        "meta_inclination": 43.0006,
        "meta_ra_of_asc_node": 92.5526,
        "meta_arg_of_pericenter": 281.0465,
        "meta_mean_anomaly": 192.0933,
        "meta_ephemeris_type": 0,
        "meta_classification_type": "U",
        "meta_norad_cat_id": 66854,
        "meta_element_set_no": 999,
        "meta_rev_at_epoch": 217,
        "meta_bstar": -0.0086120682,
        "meta_mean_motion_dot": -0.0135198,
        "meta_mean_motion_ddot": 0,
        "tle_line1": "1 66854U 25281G   25351.58336806 -.01351980  00000+0 -86121-2 0  9990",
        "tle_line2": "2 66854  43.0006  92.5526 0001500 281.0465 192.0933 15.78095595  2176"
      },
      "geometry": {
        "type": "Point",
        "coordinates": [
          -42.96186922546581,
          -34.24470539491767
        ]
      }
    },
    {
      "type": "Feature",
      "properties": {
        "norad_id": 66855,
        "name": "STARLINK-36090",
        "group": "last-30-days",
        "lat": -35.20749447855328,
        "lon": -40.677254392315895,
        "alt_km": 341.65400424591917,
        "timestamp": "2025-12-17T23:38:05.625921+00:00",
        "meta_object_name": "STARLINK-36090",
        "meta_object_id": "2025-281H",
        "meta_epoch": "2025-12-17T14:00:03.000384",
        "meta_mean_motion": 15.78022554,
        "meta_eccentricity": 0.00014135,
        "meta_inclination": 43.0004,
        "meta_ra_of_asc_node": 92.547,
        "meta_arg_of_pericenter": 285.0639,
        "meta_mean_anomaly": 190.3028,
        "meta_ephemeris_type": 0,
        "meta_classification_type": "U",
        "meta_norad_cat_id": 66855,
        "meta_element_set_no": 999,
        "meta_rev_at_epoch": 205,
        "meta_bstar": -0.0086869898,
        "meta_mean_motion_dot": -0.01358392,
        "meta_mean_motion_ddot": 0,
        "tle_line1": "1 66855U 25281H   25351.58336806 -.01358392  00000+0 -86870-2 0  9996",
        "tle_line2": "2 66855  43.0004  92.5470 0001413 285.0639 190.3028 15.78022554  2051"
      },
      "geometry": {
        "type": "Point",
        "coordinates": [
          -40.677254392315895,
          -35.20749447855328
        ]
      }
    }
  ]
}